[{"OBJECT_NAME":"ONEWEB-0668","OBJECT_ID":"2023-068B","EPOCH":"2026-03-09T20:56:59.092224","MEAN_MOTION":13.16593747,"ECCENTRICITY":0.00017989,"INCLINATION":87.9017,"RA_OF_ASC_NODE":248.5184,"ARG_OF_PERICENTER":77.2419,"MEAN_ANOMALY":282.8913,"EPHEMERIS_TYPE":0,"CLASSIFICATION_TYPE":"U","NORAD_CAT_ID":56711,"ELEMENT_SET_NO":999,"REV_AT_EPOCH":13871,"BSTAR":4.4873415e-5,"MEAN_MOTION_DOT":3.0e-7,"MEAN_MOTION_DDOT":0},{"OBJECT_NAME":"NOVA 2","OBJECT_ID":"1988-052A","EPOCH":"2026-03-09T23:11:20.030784","MEAN_MOTION":13.22947678,"ECCENTRICITY":0.00318309,"INCLINATION":89.9782,"RA_OF_ASC_NODE":78.1217,"ARG_OF_PERICENTER":130.8768,"MEAN_ANOMALY":288.9552,"EPHEMERIS_TYPE":0,"CLASSIFICATION_TYPE":"U","NORAD_CAT_ID":19223,"ELEMENT_SET_NO":999,"REV_AT_EPOCH":82101,"BSTAR":0.00015204319,"MEAN_MOTION_DOT":7.3e-7,"MEAN_MOTION_DDOT":0}]
